{"type": "FeatureCollection", "features": [ {"type": "Feature", "properties": {"norad_id": 30815, "name": "FENGYUN 1C DEB", "group": "fengyun-1c-debris", "lat": 71.58082320365956, "lon": 116.84873352563463, "alt_km": 643.7626049131432, "timestamp": "2025-12-15T22:44:29.206876+00:00", "meta": {"OBJECT_NAME": "FENGYUN 1C DEB", "OBJECT_ID": "1999-025AUZ", "EPOCH": "2025-12-14T09:11:31.873920", "MEAN_MOTION": 14.73678743, "ECCENTRICITY": 0.00024746, "INCLINATION": 99.299, "RA_OF_ASC_NODE": 144.5291, "ARG_OF_PERICENTER": 278.2551, "MEAN_ANOMALY": 140.0382, "EPHEMERIS_TYPE": 0, "CLASSIFICATION_TYPE": "U", "NORAD_CAT_ID": 30815, "ELEMENT_SET_NO": 999, "REV_AT_EPOCH": 97804, "BSTAR": 0.0044296284, "MEAN_MOTION_DOT": 0.0002896, "MEAN_MOTION_DDOT": 0}, "tle": {"line1": "1 30815U 99025AUZ 25348.38300780  .00028960  00000+0  44296-2 0  9994", "line2": "2 30815  99.2990 144.5291 0002474 278.2551 140.0382 14.73678743978046"}}, "geometry": {"type": "Point", "coordinates": [116.84873352563463, 71.58082320365956]}}, {"type": "Feature", "properties": {"norad_id": 30816, "name": "FENGYUN 1C DEB", "group": "fengyun-1c-debris", "lat": 48.707030173926654, "lon": -109.26669128236584, "alt_km": 823.6181638159824, "timestamp": "2025-12-15T22:44:29.206886+00:00", "meta": {"OBJECT_NAME": "FENGYUN 1C DEB", "OBJECT_ID": "1999-025AVA", "EPOCH": "2025-12-15T03:50:29.486400", "MEAN_MOTION": 14.18025388, "ECCENTRICITY": 0.00522087, "INCLINATION": 98.9147, "RA_OF_ASC_NODE": 59.6484, "ARG_OF_PERICENTER": 48.4187, "MEAN_ANOMALY": 23.5598, "EPHEMERIS_TYPE": 0, "CLASSIFICATION_TYPE": "U", "NORAD_CAT_ID": 30816, "ELEMENT_SET_NO": 999, "REV_AT_EPOCH": 96428, "BSTAR": 0.0012602555, "MEAN_MOTION_DOT": 2.573e-05, "MEAN_MOTION_DDOT": 0}, "tle": {"line1": "1 30816U 99025AVA 25349.16006350  .00002573  00000+0  12603-2 0  9997", "line2": "2 30816  98.9147  59.6484 0052208  48.4187  23.5598 14.18025388964284"}}, "geometry": {"type": "Point", "coordinates": [-109.26669128236584, 48.707030173926654]}}, {"type": "Feature", "properties": {"norad_id": 30817, "name": "FENGYUN 1C DEB", "group": "fengyun-1c-debris", "lat": 14.33411347145223, "lon": -22.228631852226954, "alt_km": 923.4697486617952, "timestamp": "2025-12-15T22:44:29.206896+00:00", "meta": {"OBJECT_NAME": "FENGYUN 1C DEB", "OBJECT_ID": "1999-025AVB", "EPOCH": "2025-12-14T17:31:40.270944", "MEAN_MOTION": 14.00722197, "ECCENTRICITY": 0.00573859, "INCLINATION": 98.7857, "RA_OF_ASC_NODE": 338.8658, "ARG_OF_PERICENTER": 239.1205, "MEAN_ANOMALY": 120.4309, "EPHEMERIS_TYPE": 0, "CLASSIFICATION_TYPE": "U", "NORAD_CAT_ID": 30817, "ELEMENT_SET_NO": 999, "REV_AT_EPOCH": 95937, "BSTAR": 0.00026644453, "MEAN_MOTION_DOT": 3.6e-06, "MEAN_MOTION_DDOT": 0}, "tle": {"line1": "1 30817U 99025AVB 25348.73032721  .00000360  00000+0  26644-3 0  9994", "line2": "2 30817  98.7857 338.8658 0057385 239.1205 120.4309 14.00722197959371"}}, "geometry": {"type": "Point", "coordinates": [-22.228631852226954, 14.33411347145223]}}, {"type": "Feature", "properties": {"norad_id": 30820, "name": "FENGYUN 1C DEB", "group": "fengyun-1c-debris", "lat": 61.892323887081744, "lon": -77.19482462881766, "alt_km": 796.3993984249937, "timestamp": "2025-12-15T22:44:29.206907+00:00", "meta": {"OBJECT_NAME": "FENGYUN 1C DEB", "OBJECT_ID": "1999-025AVE", "EPOCH": "2025-12-15T05:26:21.220800", "MEAN_MOTION": 14.21423228, "ECCENTRICITY": 0.00521106, "INCLINATION": 98.6768, "RA_OF_ASC_NODE": 85.4842, "ARG_OF_PERICENTER": 180.3389, "MEAN_ANOMALY": 209.9854, "EPHEMERIS_TYPE": 0, "CLASSIFICATION_TYPE": "U", "NORAD_CAT_ID": 30820, "ELEMENT_SET_NO": 999, "REV_AT_EPOCH": 96459, "BSTAR": 0.0014248375, "MEAN_MOTION_DOT": 3.114e-05, "MEAN_MOTION_DDOT": 0}, "tle": {"line1": "1 30820U 99025AVE 25349.22663450  .00003114  00000+0  14248-2 0  9998", "line2": "2 30820  98.6768  85.4842 0052110 180.3389 209.9854 14.21423228964590"}}, "geometry": {"type": "Point", "coordinates": [-77.19482462881766, 61.892323887081744]}}, {"type": "Feature", "properties": {"norad_id": 30821, "name": "FENGYUN 1C DEB", "group": "fengyun-1c-debris", "lat": 46.28568409595834, "lon": -37.570881196074346, "alt_km": 694.805578305678, "timestamp": "2025-12-15T22:44:29.206918+00:00", "meta": {"OBJECT_NAME": "FENGYUN 1C DEB", "OBJECT_ID": "1999-025AVF", "EPOCH": "2025-12-13T21:08:05.531712", "MEAN_MOTION": 14.49671631, "ECCENTRICITY": 0.00864337, "INCLINATION": 99.1019, "RA_OF_ASC_NODE": 130.5464, "ARG_OF_PERICENTER": 202.5923, "MEAN_ANOMALY": 310.2806, "EPHEMERIS_TYPE": 0, "CLASSIFICATION_TYPE": "U", "NORAD_CAT_ID": 30821, "ELEMENT_SET_NO": 999, "REV_AT_EPOCH": 98805, "BSTAR": 0.0010941113, "MEAN_MOTION_DOT": 4.36e-05, "MEAN_MOTION_DDOT": 0}, "tle": {"line1": "1 30821U 99025AVF 25347.88061958  .00004360  00000+0  10941-2 0  9994", "line2": "2 30821  99.1019 130.5464 0086433 202.5923 310.2806 14.49671631988057"}}, "geometry": {"type": "Point", "coordinates": [-37.570881196074346, 46.28568409595834]}}, {"type": "Feature", "properties": {"norad_id": 30822, "name": "FENGYUN 1C DEB", "group": "fengyun-1c-debris", "lat": -32.614238971354204, "lon": 23.57090584317052, "alt_km": 827.2237952619271, "timestamp": "2025-12-15T22:44:29.206928+00:00", "meta": {"OBJECT_NAME": "FENGYUN 1C DEB", "OBJECT_ID": "1999-025AVG", "EPOCH": "2025-12-15T00:55:08.082336", "MEAN_MOTION": 14.11344802, "ECCENTRICITY": 0.00731435, "INCLINATION": 98.7352, "RA_OF_ASC_NODE": 17.0403, "ARG_OF_PERICENTER": 278.7291, "MEAN_ANOMALY": 110.3907, "EPHEMERIS_TYPE": 0, "CLASSIFICATION_TYPE": "U", "NORAD_CAT_ID": 30822, "ELEMENT_SET_NO": 999, "REV_AT_EPOCH": 96734, "BSTAR": 0.00035930474, "MEAN_MOTION_DOT": 6.23e-06, "MEAN_MOTION_DDOT": 0}, "tle": {"line1": "1 30822U 99025AVG 25349.03828799  .00000623  00000+0  35930-3 0  9992", "line2": "2 30822  98.7352  17.0403 0073143 278.7291 110.3907 14.11344802967348"}}, "geometry": {"type": "Point", "coordinates": [23.57090584317052, -32.614238971354204]}}, {"type": "Feature", "properties": {"norad_id": 30823, "name": "FENGYUN 1C DEB", "group": "fengyun-1c-debris", "lat": -40.164701560635805, "lon": 138.31804982922282, "alt_km": 933.5193290556881, "timestamp": "2025-12-15T22:44:29.206939+00:00", "meta": {"OBJECT_NAME": "FENGYUN 1C DEB", "OBJECT_ID": "1999-025AVH", "EPOCH": "2025-12-15T04:41:57.152832", "MEAN_MOTION": 14.02559737, "ECCENTRICITY": 0.01341666, "INCLINATION": 98.763, "RA_OF_ASC_NODE": 130.1145, "ARG_OF_PERICENTER": 77.7512, "MEAN_ANOMALY": 49.291, "EPHEMERIS_TYPE": 0, "CLASSIFICATION_TYPE": "U", "NORAD_CAT_ID": 30823, "ELEMENT_SET_NO": 999, "REV_AT_EPOCH": 96068, "BSTAR": 0.00037237142, "MEAN_MOTION_DOT": 5.8e-06, "MEAN_MOTION_DDOT": 0}, "tle": {"line1": "1 30823U 99025AVH 25349.19580038  .00000580  00000+0  37237-3 0  9995", "line2": "2 30823  98.7630 130.1145 0134166  77.7512  49.2910 14.02559737960683"}}, "geometry": {"type": "Point", "coordinates": [138.31804982922282, -40.164701560635805]}}, {"type": "Feature", "properties": {"norad_id": 30826, "name": "FENGYUN 1C DEB", "group": "fengyun-1c-debris", "lat": -75.35762448629421, "lon": -138.00369491066147, "alt_km": 585.2894341461133, "timestamp": "2025-12-15T22:44:29.206950+00:00", "meta": {"OBJECT_NAME": "FENGYUN 1C DEB", "OBJECT_ID": "1999-025AVL", "EPOCH": "2025-12-15T09:02:53.280384", "MEAN_MOTION": 14.82259908, "ECCENTRICITY": 0.01451668, "INCLINATION": 98.8671, "RA_OF_ASC_NODE": 184.6723, "ARG_OF_PERICENTER": 348.5081, "MEAN_ANOMALY": 131.9613, "EPHEMERIS_TYPE": 0, "CLASSIFICATION_TYPE": "U", "NORAD_CAT_ID": 30826, "ELEMENT_SET_NO": 999, "REV_AT_EPOCH": 325, "BSTAR": 0.00039541468, "MEAN_MOTION_DOT": 3.718e-05, "MEAN_MOTION_DDOT": 0}, "tle": {"line1": "1 30826U 99025AVL 25349.37700556  .00003718  00000+0  39541-3 0  9993", "line2": "2 30826  98.8671 184.6723 0145166 348.5081 131.9613 14.82259908  3255"}}, "geometry": {"type": "Point", "coordinates": [-138.00369491066147, -75.35762448629421]}}, {"type": "Feature", "properties": {"norad_id": 30827, "name": "FENGYUN 1C DEB", "group": "fengyun-1c-debris", "lat": -73.46691012730695, "lon": 7.800353216984504, "alt_km": 785.6755028818798, "timestamp": "2025-12-15T22:44:29.206960+00:00", "meta": {"OBJECT_NAME": "FENGYUN 1C DEB", "OBJECT_ID": "1999-025AVM", "EPOCH": "2025-12-11T05:31:34.049280", "MEAN_MOTION": 14.37749293, "ECCENTRICITY": 0.00435959, "INCLINATION": 99.0037, "RA_OF_ASC_NODE": 330.5761, "ARG_OF_PERICENTER": 183.204, "MEAN_ANOMALY": 176.8873, "EPHEMERIS_TYPE": 0, "CLASSIFICATION_TYPE": "U", "NORAD_CAT_ID": 30827, "ELEMENT_SET_NO": 999, "REV_AT_EPOCH": 96527, "BSTAR": 0.0040350501, "MEAN_MOTION_DOT": 0.00012251, "MEAN_MOTION_DDOT": 0}, "tle": {"line1": "1 30827U 99025AVM 25345.23025520  .00012251  00000+0  40351-2 0  9998", "line2": "2 30827  99.0037 330.5761 0043595 183.2040 176.8873 14.37749293965277"}}, "geometry": {"type": "Point", "coordinates": [7.800353216984504, -73.46691012730695]}}, {"type": "Feature", "properties": {"norad_id": 30828, "name": "FENGYUN 1C DEB", "group": "fengyun-1c-debris", "lat": 33.32156075603022, "lon": 91.48130938318428, "alt_km": 737.9612207420323, "timestamp": "2025-12-15T22:44:29.206971+00:00", "meta": {"OBJECT_NAME": "FENGYUN 1C DEB", "OBJECT_ID": "1999-025AVN", "EPOCH": "2025-12-15T03:37:09.181344", "MEAN_MOTION": 14.77078448, "ECCENTRICITY": 0.02088907, "INCLINATION": 98.3758, "RA_OF_ASC_NODE": 96.2122, "ARG_OF_PERICENTER": 171.0525, "MEAN_ANOMALY": 310.2521, "EPHEMERIS_TYPE": 0, "CLASSIFICATION_TYPE": "U", "NORAD_CAT_ID": 30828, "ELEMENT_SET_NO": 999, "REV_AT_EPOCH": 98692, "BSTAR": 0.0011316811, "MEAN_MOTION_DOT": 0.00011435, "MEAN_MOTION_DDOT": 0}, "tle": {"line1": "1 30828U 99025AVN 25349.15080071  .00011435  00000+0  11317-2 0  9999", "line2": "2 30828  98.3758  96.2122 0208890 171.0525 310.2521 14.77078448986921"}}, "geometry": {"type": "Point", "coordinates": [91.48130938318428, 33.32156075603022]}}]}